ONEWEB-0228             
1 48780U 21045P   24207.42478355  .00000082  00000+0  18534-3 0  9995
2 48780  87.9013  36.8360 0001726  84.2815 275.8512 13.15071047153375
